<?xml version="1.0" encoding="UTF-8"?>
<gpx version="1.1" creator="synthetic-fixture" xmlns="http://www.topografix.com/GPX/1/1" xmlns:sr="https://yumcut.com/mobile/speedometer-gps"><trk><name>Fictional demo ride</name><trkseg>
<trkpt lat="51.5315000" lon="-0.1580000"><ele>37.00</ele><time>2026-01-01T12:00:00.000Z</time><extensions><sr:speed unit="m/s">3.300</sr:speed><sr:speedValid>true</sr:speedValid><sr:horizontalAccuracy unit="m">4.0</sr:horizontalAccuracy><sr:course unit="deg">90.0</sr:course></extensions></trkpt>
<trkpt lat="51.5315042" lon="-0.1579650"><ele>37.15</ele><time>2026-01-01T12:00:01.000Z</time><extensions><sr:speed unit="m/s">3.350</sr:speed><sr:speedValid>true</sr:speedValid><sr:horizontalAccuracy unit="m">4.0</sr:horizontalAccuracy><sr:course unit="deg">90.0</sr:course></extensions></trkpt>
<trkpt lat="51.5315083" lon="-0.1579300"><ele>37.30</ele><time>2026-01-01T12:00:02.000Z</time><extensions><sr:speed unit="m/s">3.399</sr:speed><sr:speedValid>true</sr:speedValid><sr:horizontalAccuracy unit="m">4.0</sr:horizontalAccuracy><sr:course unit="deg">90.0</sr:course></extensions></trkpt>
<trkpt lat="51.5315125" lon="-0.1578950"><ele>37.45</ele><time>2026-01-01T12:00:03.000Z</time><extensions><sr:speed unit="m/s">3.448</sr:speed><sr:speedValid>true</sr:speedValid><sr:horizontalAccuracy unit="m">4.0</sr:horizontalAccuracy><sr:course unit="deg">90.0</sr:course></extensions></trkpt>
<trkpt lat="51.5315167" lon="-0.1578600"><ele>37.60</ele><time>2026-01-01T12:00:04.000Z</time><extensions><sr:speed unit="m/s">3.495</sr:speed><sr:speedValid>true</sr:speedValid><sr:horizontalAccuracy unit="m">4.0</sr:horizontalAccuracy><sr:course unit="deg">90.0</sr:course></extensions></trkpt>
<trkpt lat="51.5315208" lon="-0.1578250"><ele>37.74</ele><time>2026-01-01T12:00:05.000Z</time><extensions><sr:speed unit="m/s">3.540</sr:speed><sr:speedValid>true</sr:speedValid><sr:horizontalAccuracy unit="m">4.0</sr:horizontalAccuracy><sr:course unit="deg">90.0</sr:course></extensions></trkpt>
<trkpt lat="51.5315250" lon="-0.1577900"><ele>37.89</ele><time>2026-01-01T12:00:06.000Z</time><extensions><sr:speed unit="m/s">3.582</sr:speed><sr:speedValid>true</sr:speedValid><sr:horizontalAccuracy unit="m">4.0</sr:horizontalAccuracy><sr:course unit="deg">90.0</sr:course></extensions></trkpt>
<trkpt lat="51.5315291" lon="-0.1577550"><ele>38.03</ele><time>2026-01-01T12:00:07.000Z</time><extensions><sr:speed unit="m/s">3.622</sr:speed><sr:speedValid>true</sr:speedValid><sr:horizontalAccuracy unit="m">4.0</sr:horizontalAccuracy><sr:course unit="deg">90.0</sr:course></extensions></trkpt>
<trkpt lat="51.5315332" lon="-0.1577200"><ele>38.17</ele><time>2026-01-01T12:00:08.000Z</time><extensions><sr:speed unit="m/s">3.659</sr:speed><sr:speedValid>true</sr:speedValid><sr:horizontalAccuracy unit="m">4.0</sr:horizontalAccuracy><sr:course unit="deg">90.0</sr:course></extensions></trkpt>
<trkpt lat="51.5315374" lon="-0.1576850"><ele>38.30</ele><time>2026-01-01T12:00:09.000Z</time><extensions><sr:speed unit="m/s">3.692</sr:speed><sr:speedValid>true</sr:speedValid><sr:horizontalAccuracy unit="m">4.0</sr:horizontalAccuracy><sr:course unit="deg">90.0</sr:course></extensions></trkpt>
<trkpt lat="51.5315415" lon="-0.1576500"><ele>38.44</ele><time>2026-01-01T12:00:10.000Z</time><extensions><sr:speed unit="m/s">3.721</sr:speed><sr:speedValid>true</sr:speedValid><sr:horizontalAccuracy unit="m">4.0</sr:horizontalAccuracy><sr:course unit="deg">90.0</sr:course></extensions></trkpt>
<trkpt lat="51.5315456" lon="-0.1576150"><ele>38.57</ele><time>2026-01-01T12:00:11.000Z</time><extensions><sr:speed unit="m/s">3.746</sr:speed><sr:speedValid>true</sr:speedValid><sr:horizontalAccuracy unit="m">4.0</sr:horizontalAccuracy><sr:course unit="deg">90.0</sr:course></extensions></trkpt>
<trkpt lat="51.5315497" lon="-0.1575800"><ele>38.69</ele><time>2026-01-01T12:00:12.000Z</time><extensions><sr:speed unit="m/s">3.766</sr:speed><sr:speedValid>true</sr:speedValid><sr:horizontalAccuracy unit="m">4.0</sr:horizontalAccuracy><sr:course unit="deg">90.0</sr:course></extensions></trkpt>
<trkpt lat="51.5315537" lon="-0.1575450"><ele>38.82</ele><time>2026-01-01T12:00:13.000Z</time><extensions><sr:speed unit="m/s">3.782</sr:speed><sr:speedValid>true</sr:speedValid><sr:horizontalAccuracy unit="m">4.0</sr:horizontalAccuracy><sr:course unit="deg">90.0</sr:course></extensions></trkpt>
<trkpt lat="51.5315578" lon="-0.1575100"><ele>38.93</ele><time>2026-01-01T12:00:14.000Z</time><extensions><sr:speed unit="m/s">3.793</sr:speed><sr:speedValid>true</sr:speedValid><sr:horizontalAccuracy unit="m">4.0</sr:horizontalAccuracy><sr:course unit="deg">90.0</sr:course></extensions></trkpt>
<trkpt lat="51.5315619" lon="-0.1574750"><ele>39.04</ele><time>2026-01-01T12:00:15.000Z</time><extensions><sr:speed unit="m/s">3.799</sr:speed><sr:speedValid>true</sr:speedValid><sr:horizontalAccuracy unit="m">4.0</sr:horizontalAccuracy><sr:course unit="deg">90.0</sr:course></extensions></trkpt>
<trkpt lat="51.5315659" lon="-0.1574400"><ele>39.15</ele><time>2026-01-01T12:00:16.000Z</time><extensions><sr:speed unit="m/s">3.800</sr:speed><sr:speedValid>true</sr:speedValid><sr:horizontalAccuracy unit="m">4.0</sr:horizontalAccuracy><sr:course unit="deg">90.0</sr:course></extensions></trkpt>
<trkpt lat="51.5315699" lon="-0.1574050"><ele>39.25</ele><time>2026-01-01T12:00:17.000Z</time><extensions><sr:speed unit="m/s">3.796</sr:speed><sr:speedValid>true</sr:speedValid><sr:horizontalAccuracy unit="m">4.0</sr:horizontalAccuracy><sr:course unit="deg">90.0</sr:course></extensions></trkpt>
<trkpt lat="51.5315739" lon="-0.1573700"><ele>39.35</ele><time>2026-01-01T12:00:18.000Z</time><extensions><sr:speed unit="m/s">3.787</sr:speed><sr:speedValid>true</sr:speedValid><sr:horizontalAccuracy unit="m">4.0</sr:horizontalAccuracy><sr:course unit="deg">90.0</sr:course></extensions></trkpt>
<trkpt lat="51.5315779" lon="-0.1573350"><ele>39.44</ele><time>2026-01-01T12:00:19.000Z</time><extensions><sr:speed unit="m/s">3.773</sr:speed><sr:speedValid>true</sr:speedValid><sr:horizontalAccuracy unit="m">4.0</sr:horizontalAccuracy><sr:course unit="deg">90.0</sr:course></extensions></trkpt>
<trkpt lat="51.5315818" lon="-0.1573000"><ele>39.52</ele><time>2026-01-01T12:00:20.000Z</time><extensions><sr:speed unit="m/s">3.755</sr:speed><sr:speedValid>true</sr:speedValid><sr:horizontalAccuracy unit="m">4.0</sr:horizontalAccuracy><sr:course unit="deg">90.0</sr:course></extensions></trkpt>
<trkpt lat="51.5315857" lon="-0.1572650"><ele>39.60</ele><time>2026-01-01T12:00:21.000Z</time><extensions><sr:speed unit="m/s">3.732</sr:speed><sr:speedValid>true</sr:speedValid><sr:horizontalAccuracy unit="m">4.0</sr:horizontalAccuracy><sr:course unit="deg">90.0</sr:course></extensions></trkpt>
<trkpt lat="51.5315896" lon="-0.1572300"><ele>39.67</ele><time>2026-01-01T12:00:22.000Z</time><extensions><sr:speed unit="m/s">3.704</sr:speed><sr:speedValid>true</sr:speedValid><sr:horizontalAccuracy unit="m">4.0</sr:horizontalAccuracy><sr:course unit="deg">90.0</sr:course></extensions></trkpt>
<trkpt lat="51.5315935" lon="-0.1571950"><ele>39.74</ele><time>2026-01-01T12:00:23.000Z</time><extensions><sr:speed unit="m/s">3.673</sr:speed><sr:speedValid>true</sr:speedValid><sr:horizontalAccuracy unit="m">4.0</sr:horizontalAccuracy><sr:course unit="deg">90.0</sr:course></extensions></trkpt>
<trkpt lat="51.5315974" lon="-0.1571600"><ele>39.80</ele><time>2026-01-01T12:00:24.000Z</time><extensions><sr:speed unit="m/s">3.638</sr:speed><sr:speedValid>true</sr:speedValid><sr:horizontalAccuracy unit="m">4.0</sr:horizontalAccuracy><sr:course unit="deg">90.0</sr:course></extensions></trkpt>
<trkpt lat="51.5316012" lon="-0.1571250"><ele>39.85</ele><time>2026-01-01T12:00:25.000Z</time><extensions><sr:speed unit="m/s">3.599</sr:speed><sr:speedValid>true</sr:speedValid><sr:horizontalAccuracy unit="m">4.0</sr:horizontalAccuracy><sr:course unit="deg">90.0</sr:course></extensions></trkpt>
<trkpt lat="51.5316050" lon="-0.1570900"><ele>39.89</ele><time>2026-01-01T12:00:26.000Z</time><extensions><sr:speed unit="m/s">3.558</sr:speed><sr:speedValid>true</sr:speedValid><sr:horizontalAccuracy unit="m">4.0</sr:horizontalAccuracy><sr:course unit="deg">90.0</sr:course></extensions></trkpt>
<trkpt lat="51.5316087" lon="-0.1570550"><ele>39.93</ele><time>2026-01-01T12:00:27.000Z</time><extensions><sr:speed unit="m/s">3.514</sr:speed><sr:speedValid>true</sr:speedValid><sr:horizontalAccuracy unit="m">4.0</sr:horizontalAccuracy><sr:course unit="deg">90.0</sr:course></extensions></trkpt>
<trkpt lat="51.5316125" lon="-0.1570200"><ele>39.96</ele><time>2026-01-01T12:00:28.000Z</time><extensions><sr:speed unit="m/s">3.467</sr:speed><sr:speedValid>true</sr:speedValid><sr:horizontalAccuracy unit="m">4.0</sr:horizontalAccuracy><sr:course unit="deg">90.0</sr:course></extensions></trkpt>
<trkpt lat="51.5316162" lon="-0.1569850"><ele>39.98</ele><time>2026-01-01T12:00:29.000Z</time><extensions><sr:speed unit="m/s">3.420</sr:speed><sr:speedValid>true</sr:speedValid><sr:horizontalAccuracy unit="m">4.0</sr:horizontalAccuracy><sr:course unit="deg">90.0</sr:course></extensions></trkpt>
<trkpt lat="51.5316199" lon="-0.1569500"><ele>39.99</ele><time>2026-01-01T12:00:30.000Z</time><extensions><sr:speed unit="m/s">3.371</sr:speed><sr:speedValid>true</sr:speedValid><sr:horizontalAccuracy unit="m">4.0</sr:horizontalAccuracy><sr:course unit="deg">90.0</sr:course></extensions></trkpt>
<trkpt lat="51.5316235" lon="-0.1569150"><ele>40.00</ele><time>2026-01-01T12:00:31.000Z</time><extensions><sr:speed unit="m/s">3.321</sr:speed><sr:speedValid>true</sr:speedValid><sr:horizontalAccuracy unit="m">4.0</sr:horizontalAccuracy><sr:course unit="deg">90.0</sr:course></extensions></trkpt>
<trkpt lat="51.5316271" lon="-0.1568800"><ele>40.00</ele><time>2026-01-01T12:00:32.000Z</time><extensions><sr:speed unit="m/s">3.271</sr:speed><sr:speedValid>true</sr:speedValid><sr:horizontalAccuracy unit="m">4.0</sr:horizontalAccuracy><sr:course unit="deg">90.0</sr:course></extensions></trkpt>
<trkpt lat="51.5316307" lon="-0.1568450"><ele>39.99</ele><time>2026-01-01T12:00:33.000Z</time><extensions><sr:speed unit="m/s">3.221</sr:speed><sr:speedValid>true</sr:speedValid><sr:horizontalAccuracy unit="m">4.0</sr:horizontalAccuracy><sr:course unit="deg">90.0</sr:course></extensions></trkpt>
<trkpt lat="51.5316342" lon="-0.1568100"><ele>39.97</ele><time>2026-01-01T12:00:34.000Z</time><extensions><sr:speed unit="m/s">3.172</sr:speed><sr:speedValid>true</sr:speedValid><sr:horizontalAccuracy unit="m">4.0</sr:horizontalAccuracy><sr:course unit="deg">90.0</sr:course></extensions></trkpt>
<trkpt lat="51.5316377" lon="-0.1567750"><ele>39.95</ele><time>2026-01-01T12:00:35.000Z</time><extensions><sr:speed unit="m/s">3.125</sr:speed><sr:speedValid>true</sr:speedValid><sr:horizontalAccuracy unit="m">4.0</sr:horizontalAccuracy><sr:course unit="deg">90.0</sr:course></extensions></trkpt>
<trkpt lat="51.5316412" lon="-0.1567400"><ele>39.92</ele><time>2026-01-01T12:00:36.000Z</time><extensions><sr:speed unit="m/s">3.079</sr:speed><sr:speedValid>true</sr:speedValid><sr:horizontalAccuracy unit="m">4.0</sr:horizontalAccuracy><sr:course unit="deg">90.0</sr:course></extensions></trkpt>
<trkpt lat="51.5316446" lon="-0.1567050"><ele>39.88</ele><time>2026-01-01T12:00:37.000Z</time><extensions><sr:speed unit="m/s">3.035</sr:speed><sr:speedValid>true</sr:speedValid><sr:horizontalAccuracy unit="m">4.0</sr:horizontalAccuracy><sr:course unit="deg">90.0</sr:course></extensions></trkpt>
<trkpt lat="51.5316480" lon="-0.1566700"><ele>39.84</ele><time>2026-01-01T12:00:38.000Z</time><extensions><sr:speed unit="m/s">2.994</sr:speed><sr:speedValid>true</sr:speedValid><sr:horizontalAccuracy unit="m">4.0</sr:horizontalAccuracy><sr:course unit="deg">90.0</sr:course></extensions></trkpt>
<trkpt lat="51.5316513" lon="-0.1566350"><ele>39.79</ele><time>2026-01-01T12:00:39.000Z</time><extensions><sr:speed unit="m/s">2.956</sr:speed><sr:speedValid>true</sr:speedValid><sr:horizontalAccuracy unit="m">4.0</sr:horizontalAccuracy><sr:course unit="deg">90.0</sr:course></extensions></trkpt>
<trkpt lat="51.5316546" lon="-0.1566000"><ele>39.73</ele><time>2026-01-01T12:00:40.000Z</time><extensions><sr:speed unit="m/s">2.922</sr:speed><sr:speedValid>true</sr:speedValid><sr:horizontalAccuracy unit="m">4.0</sr:horizontalAccuracy><sr:course unit="deg">90.0</sr:course></extensions></trkpt>
<trkpt lat="51.5316578" lon="-0.1565650"><ele>39.66</ele><time>2026-01-01T12:00:41.000Z</time><extensions><sr:speed unit="m/s">2.891</sr:speed><sr:speedValid>true</sr:speedValid><sr:horizontalAccuracy unit="m">4.0</sr:horizontalAccuracy><sr:course unit="deg">90.0</sr:course></extensions></trkpt>
<trkpt lat="51.5316611" lon="-0.1565300"><ele>39.59</ele><time>2026-01-01T12:00:42.000Z</time><extensions><sr:speed unit="m/s">2.864</sr:speed><sr:speedValid>true</sr:speedValid><sr:horizontalAccuracy unit="m">4.0</sr:horizontalAccuracy><sr:course unit="deg">90.0</sr:course></extensions></trkpt>
<trkpt lat="51.5316642" lon="-0.1564950"><ele>39.51</ele><time>2026-01-01T12:00:43.000Z</time><extensions><sr:speed unit="m/s">2.842</sr:speed><sr:speedValid>true</sr:speedValid><sr:horizontalAccuracy unit="m">4.0</sr:horizontalAccuracy><sr:course unit="deg">90.0</sr:course></extensions></trkpt>
<trkpt lat="51.5316673" lon="-0.1564600"><ele>39.43</ele><time>2026-01-01T12:00:44.000Z</time><extensions><sr:speed unit="m/s">2.824</sr:speed><sr:speedValid>true</sr:speedValid><sr:horizontalAccuracy unit="m">4.0</sr:horizontalAccuracy><sr:course unit="deg">90.0</sr:course></extensions></trkpt>
<trkpt lat="51.5316704" lon="-0.1564250"><ele>39.33</ele><time>2026-01-01T12:00:45.000Z</time><extensions><sr:speed unit="m/s">2.811</sr:speed><sr:speedValid>true</sr:speedValid><sr:horizontalAccuracy unit="m">4.0</sr:horizontalAccuracy><sr:course unit="deg">90.0</sr:course></extensions></trkpt>
<trkpt lat="51.5316734" lon="-0.1563900"><ele>39.24</ele><time>2026-01-01T12:00:46.000Z</time><extensions><sr:speed unit="m/s">2.803</sr:speed><sr:speedValid>true</sr:speedValid><sr:horizontalAccuracy unit="m">4.0</sr:horizontalAccuracy><sr:course unit="deg">90.0</sr:course></extensions></trkpt>
<trkpt lat="51.5316764" lon="-0.1563550"><ele>39.13</ele><time>2026-01-01T12:00:47.000Z</time><extensions><sr:speed unit="m/s">2.800</sr:speed><sr:speedValid>true</sr:speedValid><sr:horizontalAccuracy unit="m">4.0</sr:horizontalAccuracy><sr:course unit="deg">90.0</sr:course></extensions></trkpt>
<trkpt lat="51.5316793" lon="-0.1563200"><ele>39.03</ele><time>2026-01-01T12:00:48.000Z</time><extensions><sr:speed unit="m/s">2.802</sr:speed><sr:speedValid>true</sr:speedValid><sr:horizontalAccuracy unit="m">4.0</sr:horizontalAccuracy><sr:course unit="deg">90.0</sr:course></extensions></trkpt>
<trkpt lat="51.5316822" lon="-0.1562850"><ele>38.91</ele><time>2026-01-01T12:00:49.000Z</time><extensions><sr:speed unit="m/s">2.809</sr:speed><sr:speedValid>true</sr:speedValid><sr:horizontalAccuracy unit="m">4.0</sr:horizontalAccuracy><sr:course unit="deg">90.0</sr:course></extensions></trkpt>
<trkpt lat="51.5316850" lon="-0.1562500"><ele>38.80</ele><time>2026-01-01T12:00:50.000Z</time><extensions><sr:speed unit="m/s">2.821</sr:speed><sr:speedValid>true</sr:speedValid><sr:horizontalAccuracy unit="m">4.0</sr:horizontalAccuracy><sr:course unit="deg">90.0</sr:course></extensions></trkpt>
<trkpt lat="51.5316878" lon="-0.1562150"><ele>38.67</ele><time>2026-01-01T12:00:51.000Z</time><extensions><sr:speed unit="m/s">2.837</sr:speed><sr:speedValid>true</sr:speedValid><sr:horizontalAccuracy unit="m">4.0</sr:horizontalAccuracy><sr:course unit="deg">90.0</sr:course></extensions></trkpt>
<trkpt lat="51.5316905" lon="-0.1561800"><ele>38.55</ele><time>2026-01-01T12:00:52.000Z</time><extensions><sr:speed unit="m/s">2.858</sr:speed><sr:speedValid>true</sr:speedValid><sr:horizontalAccuracy unit="m">4.0</sr:horizontalAccuracy><sr:course unit="deg">90.0</sr:course></extensions></trkpt>
<trkpt lat="51.5316932" lon="-0.1561450"><ele>38.42</ele><time>2026-01-01T12:00:53.000Z</time><extensions><sr:speed unit="m/s">2.884</sr:speed><sr:speedValid>true</sr:speedValid><sr:horizontalAccuracy unit="m">4.0</sr:horizontalAccuracy><sr:course unit="deg">90.0</sr:course></extensions></trkpt>
<trkpt lat="51.5316958" lon="-0.1561100"><ele>38.28</ele><time>2026-01-01T12:00:54.000Z</time><extensions><sr:speed unit="m/s">2.914</sr:speed><sr:speedValid>true</sr:speedValid><sr:horizontalAccuracy unit="m">4.0</sr:horizontalAccuracy><sr:course unit="deg">90.0</sr:course></extensions></trkpt>
<trkpt lat="51.5316984" lon="-0.1560750"><ele>38.14</ele><time>2026-01-01T12:00:55.000Z</time><extensions><sr:speed unit="m/s">2.947</sr:speed><sr:speedValid>true</sr:speedValid><sr:horizontalAccuracy unit="m">4.0</sr:horizontalAccuracy><sr:course unit="deg">90.0</sr:course></extensions></trkpt>
<trkpt lat="51.5317009" lon="-0.1560400"><ele>38.00</ele><time>2026-01-01T12:00:56.000Z</time><extensions><sr:speed unit="m/s">2.984</sr:speed><sr:speedValid>true</sr:speedValid><sr:horizontalAccuracy unit="m">4.0</sr:horizontalAccuracy><sr:course unit="deg">90.0</sr:course></extensions></trkpt>
<trkpt lat="51.5317034" lon="-0.1560050"><ele>37.86</ele><time>2026-01-01T12:00:57.000Z</time><extensions><sr:speed unit="m/s">3.025</sr:speed><sr:speedValid>true</sr:speedValid><sr:horizontalAccuracy unit="m">4.0</sr:horizontalAccuracy><sr:course unit="deg">90.0</sr:course></extensions></trkpt>
<trkpt lat="51.5317057" lon="-0.1559700"><ele>37.72</ele><time>2026-01-01T12:00:58.000Z</time><extensions><sr:speed unit="m/s">3.068</sr:speed><sr:speedValid>true</sr:speedValid><sr:horizontalAccuracy unit="m">4.0</sr:horizontalAccuracy><sr:course unit="deg">90.0</sr:course></extensions></trkpt>
<trkpt lat="51.5317081" lon="-0.1559350"><ele>37.57</ele><time>2026-01-01T12:00:59.000Z</time><extensions><sr:speed unit="m/s">3.113</sr:speed><sr:speedValid>true</sr:speedValid><sr:horizontalAccuracy unit="m">4.0</sr:horizontalAccuracy><sr:course unit="deg">90.0</sr:course></extensions></trkpt>
<trkpt lat="51.5317104" lon="-0.1559000"><ele>37.42</ele><time>2026-01-01T12:01:00.000Z</time><extensions><sr:speed unit="m/s">3.160</sr:speed><sr:speedValid>true</sr:speedValid><sr:horizontalAccuracy unit="m">4.0</sr:horizontalAccuracy><sr:course unit="deg">90.0</sr:course></extensions></trkpt>
<trkpt lat="51.5317126" lon="-0.1558650"><ele>37.27</ele><time>2026-01-01T12:01:01.000Z</time><extensions><sr:speed unit="m/s">3.209</sr:speed><sr:speedValid>true</sr:speedValid><sr:horizontalAccuracy unit="m">4.0</sr:horizontalAccuracy><sr:course unit="deg">90.0</sr:course></extensions></trkpt>
<trkpt lat="51.5317148" lon="-0.1558300"><ele>37.12</ele><time>2026-01-01T12:01:02.000Z</time><extensions><sr:speed unit="m/s">3.258</sr:speed><sr:speedValid>true</sr:speedValid><sr:horizontalAccuracy unit="m">4.0</sr:horizontalAccuracy><sr:course unit="deg">90.0</sr:course></extensions></trkpt>
<trkpt lat="51.5317169" lon="-0.1557950"><ele>36.97</ele><time>2026-01-01T12:01:03.000Z</time><extensions><sr:speed unit="m/s">3.308</sr:speed><sr:speedValid>true</sr:speedValid><sr:horizontalAccuracy unit="m">4.0</sr:horizontalAccuracy><sr:course unit="deg">90.0</sr:course></extensions></trkpt>
<trkpt lat="51.5317189" lon="-0.1557600"><ele>36.82</ele><time>2026-01-01T12:01:04.000Z</time><extensions><sr:speed unit="m/s">3.358</sr:speed><sr:speedValid>true</sr:speedValid><sr:horizontalAccuracy unit="m">4.0</sr:horizontalAccuracy><sr:course unit="deg">90.0</sr:course></extensions></trkpt>
<trkpt lat="51.5317209" lon="-0.1557250"><ele>36.68</ele><time>2026-01-01T12:01:05.000Z</time><extensions><sr:speedValid>false</sr:speedValid><sr:horizontalAccuracy unit="m">4.0</sr:horizontalAccuracy><sr:course unit="deg">90.0</sr:course></extensions></trkpt>
<trkpt lat="51.5317228" lon="-0.1556900"><ele>36.53</ele><time>2026-01-01T12:01:06.000Z</time><extensions><sr:speed unit="m/s">3.456</sr:speed><sr:speedValid>true</sr:speedValid><sr:horizontalAccuracy unit="m">4.0</sr:horizontalAccuracy><sr:course unit="deg">90.0</sr:course></extensions></trkpt>
<trkpt lat="51.5317247" lon="-0.1556550"><ele>36.38</ele><time>2026-01-01T12:01:07.000Z</time><extensions><sr:speed unit="m/s">3.502</sr:speed><sr:speedValid>true</sr:speedValid><sr:horizontalAccuracy unit="m">4.0</sr:horizontalAccuracy><sr:course unit="deg">90.0</sr:course></extensions></trkpt>
<trkpt lat="51.5317265" lon="-0.1556200"><ele>36.23</ele><time>2026-01-01T12:01:08.000Z</time><extensions><sr:speed unit="m/s">3.547</sr:speed><sr:speedValid>true</sr:speedValid><sr:horizontalAccuracy unit="m">4.0</sr:horizontalAccuracy><sr:course unit="deg">90.0</sr:course></extensions></trkpt>
<trkpt lat="51.5317282" lon="-0.1555850"><ele>36.09</ele><time>2026-01-01T12:01:09.000Z</time><extensions><sr:speed unit="m/s">3.589</sr:speed><sr:speedValid>true</sr:speedValid><sr:horizontalAccuracy unit="m">4.0</sr:horizontalAccuracy><sr:course unit="deg">90.0</sr:course></extensions></trkpt>
<trkpt lat="51.5317299" lon="-0.1555500"><ele>35.95</ele><time>2026-01-01T12:01:10.000Z</time><extensions><sr:speed unit="m/s">3.628</sr:speed><sr:speedValid>true</sr:speedValid><sr:horizontalAccuracy unit="m">4.0</sr:horizontalAccuracy><sr:course unit="deg">90.0</sr:course></extensions></trkpt>
<trkpt lat="51.5317315" lon="-0.1555150"><ele>35.81</ele><time>2026-01-01T12:01:11.000Z</time><extensions><sr:speed unit="m/s">3.664</sr:speed><sr:speedValid>true</sr:speedValid><sr:horizontalAccuracy unit="m">4.0</sr:horizontalAccuracy><sr:course unit="deg">90.0</sr:course></extensions></trkpt>
<trkpt lat="51.5317330" lon="-0.1554800"><ele>35.67</ele><time>2026-01-01T12:01:12.000Z</time><extensions><sr:speed unit="m/s">3.697</sr:speed><sr:speedValid>true</sr:speedValid><sr:horizontalAccuracy unit="m">4.0</sr:horizontalAccuracy><sr:course unit="deg">90.0</sr:course></extensions></trkpt>
<trkpt lat="51.5317345" lon="-0.1554450"><ele>35.54</ele><time>2026-01-01T12:01:13.000Z</time><extensions><sr:speed unit="m/s">3.725</sr:speed><sr:speedValid>true</sr:speedValid><sr:horizontalAccuracy unit="m">4.0</sr:horizontalAccuracy><sr:course unit="deg">90.0</sr:course></extensions></trkpt>
<trkpt lat="51.5317359" lon="-0.1554100"><ele>35.41</ele><time>2026-01-01T12:01:14.000Z</time><extensions><sr:speed unit="m/s">3.749</sr:speed><sr:speedValid>true</sr:speedValid><sr:horizontalAccuracy unit="m">4.0</sr:horizontalAccuracy><sr:course unit="deg">90.0</sr:course></extensions></trkpt>
<trkpt lat="51.5317372" lon="-0.1553750"><ele>35.29</ele><time>2026-01-01T12:01:15.000Z</time><extensions><sr:speed unit="m/s">3.769</sr:speed><sr:speedValid>true</sr:speedValid><sr:horizontalAccuracy unit="m">4.0</sr:horizontalAccuracy><sr:course unit="deg">90.0</sr:course></extensions></trkpt>
<trkpt lat="51.5317385" lon="-0.1553400"><ele>35.16</ele><time>2026-01-01T12:01:16.000Z</time><extensions><sr:speed unit="m/s">3.784</sr:speed><sr:speedValid>true</sr:speedValid><sr:horizontalAccuracy unit="m">4.0</sr:horizontalAccuracy><sr:course unit="deg">90.0</sr:course></extensions></trkpt>
<trkpt lat="51.5317397" lon="-0.1553050"><ele>35.05</ele><time>2026-01-01T12:01:17.000Z</time><extensions><sr:speed unit="m/s">3.794</sr:speed><sr:speedValid>true</sr:speedValid><sr:horizontalAccuracy unit="m">4.0</sr:horizontalAccuracy><sr:course unit="deg">90.0</sr:course></extensions></trkpt>
<trkpt lat="51.5317409" lon="-0.1552700"><ele>34.94</ele><time>2026-01-01T12:01:18.000Z</time><extensions><sr:speed unit="m/s">3.799</sr:speed><sr:speedValid>true</sr:speedValid><sr:horizontalAccuracy unit="m">4.0</sr:horizontalAccuracy><sr:course unit="deg">90.0</sr:course></extensions></trkpt>
<trkpt lat="51.5317420" lon="-0.1552350"><ele>34.83</ele><time>2026-01-01T12:01:19.000Z</time><extensions><sr:speed unit="m/s">3.799</sr:speed><sr:speedValid>true</sr:speedValid><sr:horizontalAccuracy unit="m">4.0</sr:horizontalAccuracy><sr:course unit="deg">90.0</sr:course></extensions></trkpt>
<trkpt lat="51.5317430" lon="-0.1552000"><ele>34.73</ele><time>2026-01-01T12:01:20.000Z</time><extensions><sr:speed unit="m/s">3.795</sr:speed><sr:speedValid>true</sr:speedValid><sr:horizontalAccuracy unit="m">4.0</sr:horizontalAccuracy><sr:course unit="deg">90.0</sr:course></extensions></trkpt>
<trkpt lat="51.5317439" lon="-0.1551650"><ele>34.63</ele><time>2026-01-01T12:01:21.000Z</time><extensions><sr:speed unit="m/s">3.785</sr:speed><sr:speedValid>true</sr:speedValid><sr:horizontalAccuracy unit="m">4.0</sr:horizontalAccuracy><sr:course unit="deg">90.0</sr:course></extensions></trkpt>
<trkpt lat="51.5317448" lon="-0.1551300"><ele>34.55</ele><time>2026-01-01T12:01:22.000Z</time><extensions><sr:speed unit="m/s">3.770</sr:speed><sr:speedValid>true</sr:speedValid><sr:horizontalAccuracy unit="m">4.0</sr:horizontalAccuracy><sr:course unit="deg">90.0</sr:course></extensions></trkpt>
<trkpt lat="51.5317456" lon="-0.1550950"><ele>34.46</ele><time>2026-01-01T12:01:23.000Z</time><extensions><sr:speed unit="m/s">3.751</sr:speed><sr:speedValid>true</sr:speedValid><sr:horizontalAccuracy unit="m">4.0</sr:horizontalAccuracy><sr:course unit="deg">90.0</sr:course></extensions></trkpt>
<trkpt lat="51.5317464" lon="-0.1550600"><ele>34.39</ele><time>2026-01-01T12:01:24.000Z</time><extensions><sr:speed unit="m/s">3.727</sr:speed><sr:speedValid>true</sr:speedValid><sr:horizontalAccuracy unit="m">4.0</sr:horizontalAccuracy><sr:course unit="deg">90.0</sr:course></extensions></trkpt>
<trkpt lat="51.5317470" lon="-0.1550250"><ele>34.32</ele><time>2026-01-01T12:01:25.000Z</time><extensions><sr:speed unit="m/s">3.699</sr:speed><sr:speedValid>true</sr:speedValid><sr:horizontalAccuracy unit="m">4.0</sr:horizontalAccuracy><sr:course unit="deg">90.0</sr:course></extensions></trkpt>
<trkpt lat="51.5317476" lon="-0.1549900"><ele>34.25</ele><time>2026-01-01T12:01:26.000Z</time><extensions><sr:speed unit="m/s">3.667</sr:speed><sr:speedValid>true</sr:speedValid><sr:horizontalAccuracy unit="m">4.0</sr:horizontalAccuracy><sr:course unit="deg">90.0</sr:course></extensions></trkpt>
<trkpt lat="51.5317482" lon="-0.1549550"><ele>34.19</ele><time>2026-01-01T12:01:27.000Z</time><extensions><sr:speed unit="m/s">3.631</sr:speed><sr:speedValid>true</sr:speedValid><sr:horizontalAccuracy unit="m">4.0</sr:horizontalAccuracy><sr:course unit="deg">90.0</sr:course></extensions></trkpt>
<trkpt lat="51.5317486" lon="-0.1549200"><ele>34.15</ele><time>2026-01-01T12:01:28.000Z</time><extensions><sr:speed unit="m/s">3.592</sr:speed><sr:speedValid>true</sr:speedValid><sr:horizontalAccuracy unit="m">4.0</sr:horizontalAccuracy><sr:course unit="deg">90.0</sr:course></extensions></trkpt>
<trkpt lat="51.5317490" lon="-0.1548850"><ele>34.10</ele><time>2026-01-01T12:01:29.000Z</time><extensions><sr:speed unit="m/s">3.551</sr:speed><sr:speedValid>true</sr:speedValid><sr:horizontalAccuracy unit="m">4.0</sr:horizontalAccuracy><sr:course unit="deg">90.0</sr:course></extensions></trkpt>
<trkpt lat="51.5317494" lon="-0.1548500"><ele>34.07</ele><time>2026-01-01T12:01:30.000Z</time><extensions><sr:speed unit="m/s">3.506</sr:speed><sr:speedValid>true</sr:speedValid><sr:horizontalAccuracy unit="m">4.0</sr:horizontalAccuracy><sr:course unit="deg">90.0</sr:course></extensions></trkpt>
<trkpt lat="51.5317496" lon="-0.1548150"><ele>34.04</ele><time>2026-01-01T12:01:31.000Z</time><extensions><sr:speed unit="m/s">3.460</sr:speed><sr:speedValid>true</sr:speedValid><sr:horizontalAccuracy unit="m">4.0</sr:horizontalAccuracy><sr:course unit="deg">90.0</sr:course></extensions></trkpt>
<trkpt lat="51.5317498" lon="-0.1547800"><ele>34.02</ele><time>2026-01-01T12:01:32.000Z</time><extensions><sr:speed unit="m/s">3.411</sr:speed><sr:speedValid>true</sr:speedValid><sr:horizontalAccuracy unit="m">4.0</sr:horizontalAccuracy><sr:course unit="deg">90.0</sr:course></extensions></trkpt>
<trkpt lat="51.5317499" lon="-0.1547450"><ele>34.01</ele><time>2026-01-01T12:01:33.000Z</time><extensions><sr:speed unit="m/s">3.362</sr:speed><sr:speedValid>true</sr:speedValid><sr:horizontalAccuracy unit="m">4.0</sr:horizontalAccuracy><sr:course unit="deg">90.0</sr:course></extensions></trkpt>
<trkpt lat="51.5317500" lon="-0.1547100"><ele>34.00</ele><time>2026-01-01T12:01:34.000Z</time><extensions><sr:speed unit="m/s">3.312</sr:speed><sr:speedValid>true</sr:speedValid><sr:horizontalAccuracy unit="m">4.0</sr:horizontalAccuracy><sr:course unit="deg">90.0</sr:course></extensions></trkpt>
<trkpt lat="51.5317500" lon="-0.1546750"><ele>34.00</ele><time>2026-01-01T12:01:35.000Z</time><extensions><sr:speed unit="m/s">3.262</sr:speed><sr:speedValid>true</sr:speedValid><sr:horizontalAccuracy unit="m">4.0</sr:horizontalAccuracy><sr:course unit="deg">90.0</sr:course></extensions></trkpt>
<trkpt lat="51.5317499" lon="-0.1546400"><ele>34.01</ele><time>2026-01-01T12:01:36.000Z</time><extensions><sr:speed unit="m/s">3.213</sr:speed><sr:speedValid>true</sr:speedValid><sr:horizontalAccuracy unit="m">4.0</sr:horizontalAccuracy><sr:course unit="deg">90.0</sr:course></extensions></trkpt>
<trkpt lat="51.5317497" lon="-0.1546050"><ele>34.03</ele><time>2026-01-01T12:01:37.000Z</time><extensions><sr:speed unit="m/s">3.164</sr:speed><sr:speedValid>true</sr:speedValid><sr:horizontalAccuracy unit="m">4.0</sr:horizontalAccuracy><sr:course unit="deg">90.0</sr:course></extensions></trkpt>
<trkpt lat="51.5317495" lon="-0.1545700"><ele>34.05</ele><time>2026-01-01T12:01:38.000Z</time><extensions><sr:speed unit="m/s">3.117</sr:speed><sr:speedValid>true</sr:speedValid><sr:horizontalAccuracy unit="m">4.0</sr:horizontalAccuracy><sr:course unit="deg">90.0</sr:course></extensions></trkpt>
<trkpt lat="51.5317492" lon="-0.1545350"><ele>34.08</ele><time>2026-01-01T12:01:39.000Z</time><extensions><sr:speed unit="m/s">3.071</sr:speed><sr:speedValid>true</sr:speedValid><sr:horizontalAccuracy unit="m">4.0</sr:horizontalAccuracy><sr:course unit="deg">90.0</sr:course></extensions></trkpt>
<trkpt lat="51.5317489" lon="-0.1545000"><ele>34.12</ele><time>2026-01-01T12:01:40.000Z</time><extensions><sr:speed unit="m/s">3.028</sr:speed><sr:speedValid>true</sr:speedValid><sr:horizontalAccuracy unit="m">4.0</sr:horizontalAccuracy><sr:course unit="deg">90.0</sr:course></extensions></trkpt>
<trkpt lat="51.5317484" lon="-0.1544650"><ele>34.17</ele><time>2026-01-01T12:01:41.000Z</time><extensions><sr:speed unit="m/s">2.987</sr:speed><sr:speedValid>true</sr:speedValid><sr:horizontalAccuracy unit="m">4.0</sr:horizontalAccuracy><sr:course unit="deg">90.0</sr:course></extensions></trkpt>
<trkpt lat="51.5317479" lon="-0.1544300"><ele>34.22</ele><time>2026-01-01T12:01:42.000Z</time><extensions><sr:speed unit="m/s">2.950</sr:speed><sr:speedValid>true</sr:speedValid><sr:horizontalAccuracy unit="m">4.0</sr:horizontalAccuracy><sr:course unit="deg">90.0</sr:course></extensions></trkpt>
<trkpt lat="51.5317473" lon="-0.1543950"><ele>34.28</ele><time>2026-01-01T12:01:43.000Z</time><extensions><sr:speed unit="m/s">2.916</sr:speed><sr:speedValid>true</sr:speedValid><sr:horizontalAccuracy unit="m">4.0</sr:horizontalAccuracy><sr:course unit="deg">90.0</sr:course></extensions></trkpt>
<trkpt lat="51.5317467" lon="-0.1543600"><ele>34.35</ele><time>2026-01-01T12:01:44.000Z</time><extensions><sr:speed unit="m/s">2.886</sr:speed><sr:speedValid>true</sr:speedValid><sr:horizontalAccuracy unit="m">4.0</sr:horizontalAccuracy><sr:course unit="deg">90.0</sr:course></extensions></trkpt>
<trkpt lat="51.5317460" lon="-0.1543250"><ele>34.42</ele><time>2026-01-01T12:01:45.000Z</time><extensions><sr:speed unit="m/s">2.860</sr:speed><sr:speedValid>true</sr:speedValid><sr:horizontalAccuracy unit="m">4.0</sr:horizontalAccuracy><sr:course unit="deg">90.0</sr:course></extensions></trkpt>
<trkpt lat="51.5317452" lon="-0.1542900"><ele>34.50</ele><time>2026-01-01T12:01:46.000Z</time><extensions><sr:speed unit="m/s">2.839</sr:speed><sr:speedValid>true</sr:speedValid><sr:horizontalAccuracy unit="m">4.0</sr:horizontalAccuracy><sr:course unit="deg">90.0</sr:course></extensions></trkpt>
<trkpt lat="51.5317444" lon="-0.1542550"><ele>34.59</ele><time>2026-01-01T12:01:47.000Z</time><extensions><sr:speed unit="m/s">2.822</sr:speed><sr:speedValid>true</sr:speedValid><sr:horizontalAccuracy unit="m">4.0</sr:horizontalAccuracy><sr:course unit="deg">90.0</sr:course></extensions></trkpt>
<trkpt lat="51.5317435" lon="-0.1542200"><ele>34.68</ele><time>2026-01-01T12:01:48.000Z</time><extensions><sr:speed unit="m/s">2.810</sr:speed><sr:speedValid>true</sr:speedValid><sr:horizontalAccuracy unit="m">4.0</sr:horizontalAccuracy><sr:course unit="deg">90.0</sr:course></extensions></trkpt>
<trkpt lat="51.5317425" lon="-0.1541850"><ele>34.78</ele><time>2026-01-01T12:01:49.000Z</time><extensions><sr:speed unit="m/s">2.802</sr:speed><sr:speedValid>true</sr:speedValid><sr:horizontalAccuracy unit="m">4.0</sr:horizontalAccuracy><sr:course unit="deg">90.0</sr:course></extensions></trkpt>
<trkpt lat="51.5317414" lon="-0.1541500"><ele>34.88</ele><time>2026-01-01T12:01:50.000Z</time><extensions><sr:speed unit="m/s">2.800</sr:speed><sr:speedValid>true</sr:speedValid><sr:horizontalAccuracy unit="m">4.0</sr:horizontalAccuracy><sr:course unit="deg">90.0</sr:course></extensions></trkpt>
<trkpt lat="51.5317403" lon="-0.1541150"><ele>34.99</ele><time>2026-01-01T12:01:51.000Z</time><extensions><sr:speed unit="m/s">2.803</sr:speed><sr:speedValid>true</sr:speedValid><sr:horizontalAccuracy unit="m">4.0</sr:horizontalAccuracy><sr:course unit="deg">90.0</sr:course></extensions></trkpt>
<trkpt lat="51.5317391" lon="-0.1540800"><ele>35.11</ele><time>2026-01-01T12:01:52.000Z</time><extensions><sr:speed unit="m/s">2.810</sr:speed><sr:speedValid>true</sr:speedValid><sr:horizontalAccuracy unit="m">4.0</sr:horizontalAccuracy><sr:course unit="deg">90.0</sr:course></extensions></trkpt>
<trkpt lat="51.5317379" lon="-0.1540450"><ele>35.22</ele><time>2026-01-01T12:01:53.000Z</time><extensions><sr:speed unit="m/s">2.823</sr:speed><sr:speedValid>true</sr:speedValid><sr:horizontalAccuracy unit="m">4.0</sr:horizontalAccuracy><sr:course unit="deg">90.0</sr:course></extensions></trkpt>
<trkpt lat="51.5317366" lon="-0.1540100"><ele>35.35</ele><time>2026-01-01T12:01:54.000Z</time><extensions><sr:speed unit="m/s">2.840</sr:speed><sr:speedValid>true</sr:speedValid><sr:horizontalAccuracy unit="m">4.0</sr:horizontalAccuracy><sr:course unit="deg">90.0</sr:course></extensions></trkpt>
<trkpt lat="51.5317352" lon="-0.1539750"><ele>35.48</ele><time>2026-01-01T12:01:55.000Z</time><extensions><sr:speed unit="m/s">2.862</sr:speed><sr:speedValid>true</sr:speedValid><sr:horizontalAccuracy unit="m">4.0</sr:horizontalAccuracy><sr:course unit="deg">90.0</sr:course></extensions></trkpt>
<trkpt lat="51.5317338" lon="-0.1539400"><ele>35.61</ele><time>2026-01-01T12:01:56.000Z</time><extensions><sr:speed unit="m/s">2.889</sr:speed><sr:speedValid>true</sr:speedValid><sr:horizontalAccuracy unit="m">4.0</sr:horizontalAccuracy><sr:course unit="deg">90.0</sr:course></extensions></trkpt>
<trkpt lat="51.5317322" lon="-0.1539050"><ele>35.74</ele><time>2026-01-01T12:01:57.000Z</time><extensions><sr:speed unit="m/s">2.919</sr:speed><sr:speedValid>true</sr:speedValid><sr:horizontalAccuracy unit="m">4.0</sr:horizontalAccuracy><sr:course unit="deg">90.0</sr:course></extensions></trkpt>
<trkpt lat="51.5317307" lon="-0.1538700"><ele>35.88</ele><time>2026-01-01T12:01:58.000Z</time><extensions><sr:speed unit="m/s">2.953</sr:speed><sr:speedValid>true</sr:speedValid><sr:horizontalAccuracy unit="m">4.0</sr:horizontalAccuracy><sr:course unit="deg">90.0</sr:course></extensions></trkpt>
<trkpt lat="51.5317290" lon="-0.1538350"><ele>36.02</ele><time>2026-01-01T12:01:59.000Z</time><extensions><sr:speed unit="m/s">2.991</sr:speed><sr:speedValid>true</sr:speedValid><sr:horizontalAccuracy unit="m">4.0</sr:horizontalAccuracy><sr:course unit="deg">90.0</sr:course></extensions></trkpt>
<trkpt lat="51.5317273" lon="-0.1538000"><ele>36.16</ele><time>2026-01-01T12:02:00.000Z</time><extensions><sr:speed unit="m/s">3.032</sr:speed><sr:speedValid>true</sr:speedValid><sr:horizontalAccuracy unit="m">4.0</sr:horizontalAccuracy><sr:course unit="deg">90.0</sr:course></extensions></trkpt>
</trkseg></trk></gpx>
